{
  "type": "FeatureCollection",
  "features": [
    {
      "type": "Feature",
      "id": "waawa",
      "properties": {
        "id": "waawa",
        "name": "Waawa / Northern Igbo",
        "igboName": "Olundi Waawa",
        "color": "#38bdf8"
      },
      "geometry": {
        "type": "Polygon",
        "coordinates": [
          [
            [
              7.15,
              6.35
            ],
            [
              7.1,
              6.85
            ],
            [
              7.35,
              7.15
            ],
            [
              7.75,
              7.15
            ],
            [
              7.9,
              6.7
            ],
            [
              7.65,
              6.25
            ],
            [
              7.25,
              6.2
            ],
            [
              7.15,
              6.35
            ]
          ]
        ]
      }
    },
    {
      "type": "Feature",
      "id": "anambra_basin",
      "properties": {
        "id": "anambra_basin",
        "name": "Anambra Basin / Idemili",
        "igboName": "Mpaghara Mmiri Anambra",
        "color": "#06b6d4"
      },
      "geometry": {
        "type": "Polygon",
        "coordinates": [
          [
            [
              6.7,
              6.35
            ],
            [
              7.05,
              6.45
            ],
            [
              7.2,
              6.15
            ],
            [
              7.05,
              5.85
            ],
            [
              6.8,
              5.95
            ],
            [
              6.68,
              6.15
            ],
            [
              6.7,
              6.35
            ]
          ]
        ]
      }
    },
    {
      "type": "Feature",
      "id": "central",
      "properties": {
        "id": "central",
        "name": "Central & Etiti Igbo Continuum",
        "igboName": "Igbo Izugbe & Etiti",
        "color": "#10b981"
      },
      "geometry": {
        "type": "Polygon",
        "coordinates": [
          [
            [
              7.05,
              5.85
            ],
            [
              7.35,
              5.9
            ],
            [
              7.6,
              5.6
            ],
            [
              7.45,
              5.15
            ],
            [
              7.15,
              5.1
            ],
            [
              6.95,
              5.45
            ],
            [
              7.05,
              5.85
            ]
          ]
        ]
      }
    },
    {
      "type": "Feature",
      "id": "anioma",
      "properties": {
        "id": "anioma",
        "name": "Anioma / Western Igbo",
        "igboName": "Igbo Enuani, Ika na Ukwuani",
        "color": "#a855f7"
      },
      "geometry": {
        "type": "Polygon",
        "coordinates": [
          [
            [
              6.05,
              6.35
            ],
            [
              6.4,
              6.55
            ],
            [
              6.75,
              6.3
            ],
            [
              6.75,
              5.65
            ],
            [
              6.35,
              5.45
            ],
            [
              6.05,
              5.85
            ],
            [
              6.05,
              6.35
            ]
          ]
        ]
      }
    },
    {
      "type": "Feature",
      "id": "southern",
      "properties": {
        "id": "southern",
        "name": "Southern / Niger Delta Fringe",
        "igboName": "Igbo Ndịda & Upland Rivers",
        "color": "#f59e0b"
      },
      "geometry": {
        "type": "Polygon",
        "coordinates": [
          [
            [
              6.6,
              5.25
            ],
            [
              7.1,
              5.2
            ],
            [
              7.3,
              4.85
            ],
            [
              7.05,
              4.65
            ],
            [
              6.7,
              4.75
            ],
            [
              6.6,
              5.25
            ]
          ]
        ]
      }
    },
    {
      "type": "Feature",
      "id": "crossriver",
      "properties": {
        "id": "crossriver",
        "name": "Cross River / Eastern Igbo",
        "igboName": "Igbo Mmiri Cross",
        "color": "#ec4899"
      },
      "geometry": {
        "type": "Polygon",
        "coordinates": [
          [
            [
              7.65,
              6.15
            ],
            [
              8.1,
              6.1
            ],
            [
              8.15,
              5.4
            ],
            [
              7.8,
              5.3
            ],
            [
              7.6,
              5.55
            ],
            [
              7.65,
              6.15
            ]
          ]
        ]
      }
    },
    {
      "type": "Feature",
      "properties": {
        "id": "waawa",
        "name": "Waawa / Northern Igbo",
        "igboName": "Olundi Waawa",
        "color": "#38bdf8"
      },
      "geometry": {
        "type": "Point",
        "coordinates": [
          7.45,
          6.75
        ]
      }
    },
    {
      "type": "Feature",
      "properties": {
        "id": "anambra_basin",
        "name": "Anambra Basin / Idemili",
        "igboName": "Mpaghara Mmiri Anambra",
        "color": "#06b6d4"
      },
      "geometry": {
        "type": "Point",
        "coordinates": [
          6.95,
          6.15
        ]
      }
    },
    {
      "type": "Feature",
      "properties": {
        "id": "central",
        "name": "Central & Etiti Igbo Continuum",
        "igboName": "Igbo Izugbe & Etiti",
        "color": "#10b981"
      },
      "geometry": {
        "type": "Point",
        "coordinates": [
          7.2,
          5.55
        ]
      }
    },
    {
      "type": "Feature",
      "properties": {
        "id": "anioma",
        "name": "Anioma / Western Igbo",
        "igboName": "Igbo Enuani, Ika na Ukwuani",
        "color": "#a855f7"
      },
      "geometry": {
        "type": "Point",
        "coordinates": [
          6.45,
          6.15
        ]
      }
    },
    {
      "type": "Feature",
      "properties": {
        "id": "southern",
        "name": "Southern / Niger Delta Fringe",
        "igboName": "Igbo Ndịda & Upland Rivers",
        "color": "#f59e0b"
      },
      "geometry": {
        "type": "Point",
        "coordinates": [
          6.9,
          4.95
        ]
      }
    },
    {
      "type": "Feature",
      "properties": {
        "id": "crossriver",
        "name": "Cross River / Eastern Igbo",
        "igboName": "Igbo Mmiri Cross",
        "color": "#ec4899"
      },
      "geometry": {
        "type": "Point",
        "coordinates": [
          7.85,
          5.75
        ]
      }
    },
    {
      "type": "Feature",
      "id": "northeastern",
      "properties": {
        "id": "northeastern",
        "name": "Northeastern / Abakaliki Cluster",
        "igboName": "Olundi Ezza, Izzi, Ikwo na Mgbo",
        "color": "#0284c7"
      },
      "geometry": {
        "type": "Polygon",
        "coordinates": [
          [
            [
              7.85,
              6
            ],
            [
              7.85,
              6.6
            ],
            [
              8.35,
              6.6
            ],
            [
              8.4,
              6.1
            ],
            [
              8,
              5.95
            ],
            [
              7.85,
              6
            ]
          ]
        ]
      }
    },
    {
      "type": "Feature",
      "properties": {
        "id": "northeastern",
        "name": "Northeastern / Abakaliki Cluster",
        "igboName": "Olundi Ezza, Izzi, Ikwo na Mgbo",
        "color": "#0284c7"
      },
      "geometry": {
        "type": "Point",
        "coordinates": [
          8.1,
          6.3
        ]
      }
    }
  ]
}