{
  "type": "FeatureCollection",
  "features": [
    {
      "type": "Feature",
      "id": "nri-hegemony",
      "properties": {
        "id": "nri-hegemony",
        "name": "Nri Spiritual & Peace Diaspora",
        "originName": "Nri (Ancestral Hearth)",
        "destinationName": "Aguleri / Omambala",
        "era": "c. 900 AD – 1300 AD",
        "description": "Radiation of Ozo/Ichi titles, peace covenants, and sacred agriculture.",
        "color": "#10b981"
      },
      "geometry": {
        "type": "LineString",
        "coordinates": [
          [
            7.0267,
            6.1578
          ],
          [
            7.01906,
            6.16168
          ],
          [
            7.01162,
            6.16572
          ],
          [
            7.00439,
            6.16992
          ],
          [
            6.99736,
            6.17427
          ],
          [
            6.99053,
            6.17878
          ],
          [
            6.98392,
            6.18344
          ],
          [
            6.9775,
            6.18826
          ],
          [
            6.97129,
            6.19324
          ],
          [
            6.96529,
            6.19837
          ],
          [
            6.95949,
            6.20366
          ],
          [
            6.95389,
            6.2091
          ],
          [
            6.9485,
            6.2147
          ],
          [
            6.94332,
            6.22045
          ],
          [
            6.93834,
            6.22636
          ],
          [
            6.93356,
            6.23243
          ],
          [
            6.92899,
            6.23865
          ],
          [
            6.92463,
            6.24502
          ],
          [
            6.92046,
            6.25156
          ],
          [
            6.91651,
            6.25824
          ],
          [
            6.91276,
            6.26509
          ],
          [
            6.90921,
            6.27209
          ],
          [
            6.90587,
            6.27924
          ],
          [
            6.90273,
            6.28656
          ],
          [
            6.8998,
            6.29402
          ],
          [
            6.89707,
            6.30165
          ],
          [
            6.89454,
            6.30943
          ],
          [
            6.89223,
            6.31736
          ],
          [
            6.89011,
            6.32545
          ],
          [
            6.8882,
            6.3337
          ],
          [
            6.8865,
            6.3421
          ]
        ]
      }
    },
    {
      "type": "Feature",
      "id": "nri-igboukwu",
      "properties": {
        "id": "nri-igboukwu",
        "name": "Nri – Igbo-Ukwu Bronze Metallurgical Hearth",
        "originName": "Nri",
        "destinationName": "Igbo-Ukwu",
        "era": "9th Century AD",
        "description": "Sophisticated lost-wax copper casting and sacred royal regalia.",
        "color": "#059669"
      },
      "geometry": {
        "type": "LineString",
        "coordinates": [
          [
            7.0267,
            6.1578
          ],
          [
            7.0287,
            6.153
          ],
          [
            7.03054,
            6.14822
          ],
          [
            7.03222,
            6.14344
          ],
          [
            7.03375,
            6.13867
          ],
          [
            7.03513,
            6.13391
          ],
          [
            7.03635,
            6.12916
          ],
          [
            7.03741,
            6.12441
          ],
          [
            7.03832,
            6.11968
          ],
          [
            7.03907,
            6.11495
          ],
          [
            7.03967,
            6.11023
          ],
          [
            7.04011,
            6.10552
          ],
          [
            7.04039,
            6.10082
          ],
          [
            7.04052,
            6.09613
          ],
          [
            7.04049,
            6.09145
          ],
          [
            7.04031,
            6.08677
          ],
          [
            7.03997,
            6.08211
          ],
          [
            7.03948,
            6.07745
          ],
          [
            7.03883,
            6.0728
          ],
          [
            7.03803,
            6.06816
          ],
          [
            7.03707,
            6.06353
          ],
          [
            7.03595,
            6.05891
          ],
          [
            7.03468,
            6.0543
          ],
          [
            7.03325,
            6.04969
          ],
          [
            7.03167,
            6.0451
          ],
          [
            7.02993,
            6.04051
          ],
          [
            7.02803,
            6.03593
          ],
          [
            7.02598,
            6.03136
          ],
          [
            7.02378,
            6.0268
          ],
          [
            7.02142,
            6.02224
          ],
          [
            7.0189,
            6.0177
          ]
        ]
      }
    },
    {
      "type": "Feature",
      "id": "aro-arondizuogu",
      "properties": {
        "id": "aro-arondizuogu",
        "name": "Arochukwu to Arondizuogu Settlement",
        "originName": "Arochukwu",
        "destinationName": "Arondizuogu (Imo State)",
        "era": "18th Century (Mazi Izuogu Mgbokpo)",
        "description": "Establishment of the major Aro commercial and diaspora settlement in central Igboland.",
        "color": "#f59e0b"
      },
      "geometry": {
        "type": "LineString",
        "coordinates": [
          [
            7.9122,
            5.3854
          ],
          [
            7.87885,
            5.38897
          ],
          [
            7.84603,
            5.3934
          ],
          [
            7.81375,
            5.39869
          ],
          [
            7.782,
            5.40482
          ],
          [
            7.75078,
            5.41181
          ],
          [
            7.72009,
            5.41966
          ],
          [
            7.68993,
            5.42836
          ],
          [
            7.66031,
            5.43792
          ],
          [
            7.63122,
            5.44832
          ],
          [
            7.60266,
            5.45959
          ],
          [
            7.57463,
            5.47171
          ],
          [
            7.54713,
            5.48468
          ],
          [
            7.52017,
            5.49851
          ],
          [
            7.49374,
            5.51319
          ],
          [
            7.46784,
            5.52873
          ],
          [
            7.44247,
            5.54512
          ],
          [
            7.41764,
            5.56236
          ],
          [
            7.39333,
            5.58046
          ],
          [
            7.36956,
            5.59941
          ],
          [
            7.34632,
            5.61922
          ],
          [
            7.32362,
            5.63988
          ],
          [
            7.30144,
            5.6614
          ],
          [
            7.2798,
            5.68377
          ],
          [
            7.25869,
            5.707
          ],
          [
            7.23811,
            5.73108
          ],
          [
            7.21806,
            5.75602
          ],
          [
            7.19855,
            5.78181
          ],
          [
            7.17957,
            5.80845
          ],
          [
            7.16112,
            5.83595
          ],
          [
            7.1432,
            5.8643
          ]
        ]
      }
    },
    {
      "type": "Feature",
      "id": "aro-ndikelionwu",
      "properties": {
        "id": "aro-ndikelionwu",
        "name": "Arochukwu to Aro-Ndikelionwu",
        "originName": "Arochukwu",
        "destinationName": "Aro-Ndikelionwu (Anambra State)",
        "era": "Mid 18th Century",
        "description": "Founded by Mazi Ikelionwu along major regional trade axes.",
        "color": "#d97706"
      },
      "geometry": {
        "type": "LineString",
        "coordinates": [
          [
            7.9122,
            5.3854
          ],
          [
            7.87609,
            5.39664
          ],
          [
            7.84076,
            5.4087
          ],
          [
            7.8062,
            5.4216
          ],
          [
            7.77242,
            5.43532
          ],
          [
            7.73942,
            5.44988
          ],
          [
            7.70718,
            5.46526
          ],
          [
            7.67573,
            5.48147
          ],
          [
            7.64505,
            5.49851
          ],
          [
            7.61514,
            5.51638
          ],
          [
            7.58601,
            5.53508
          ],
          [
            7.55766,
            5.5546
          ],
          [
            7.53008,
            5.57496
          ],
          [
            7.50327,
            5.59614
          ],
          [
            7.47724,
            5.61816
          ],
          [
            7.45199,
            5.641
          ],
          [
            7.42751,
            5.66467
          ],
          [
            7.4038,
            5.68917
          ],
          [
            7.38088,
            5.7145
          ],
          [
            7.35872,
            5.74066
          ],
          [
            7.33734,
            5.76764
          ],
          [
            7.31674,
            5.79546
          ],
          [
            7.29691,
            5.8241
          ],
          [
            7.27786,
            5.85358
          ],
          [
            7.25958,
            5.88388
          ],
          [
            7.24208,
            5.91501
          ],
          [
            7.22536,
            5.94697
          ],
          [
            7.2094,
            5.97976
          ],
          [
            7.19423,
            6.01338
          ],
          [
            7.17983,
            6.04782
          ],
          [
            7.1662,
            6.0831
          ]
        ]
      }
    },
    {
      "type": "Feature",
      "id": "ezechima-onitsha",
      "properties": {
        "id": "ezechima-onitsha",
        "name": "Ezechima Migration to Onitsha (Ado N’Idu)",
        "originName": "Igbanke / Western Borderlands",
        "destinationName": "Onitsha (River Niger)",
        "era": "16th Century (c. 1500s)",
        "description": "The eastward crossing of River Niger establishing Onitsha Ado and the Obi monarchy.",
        "color": "#a855f7"
      },
      "geometry": {
        "type": "LineString",
        "coordinates": [
          [
            6.1245,
            6.3214
          ],
          [
            6.14933,
            6.32635
          ],
          [
            6.17397,
            6.33056
          ],
          [
            6.19842,
            6.33403
          ],
          [
            6.22268,
            6.33677
          ],
          [
            6.24675,
            6.33877
          ],
          [
            6.27063,
            6.34004
          ],
          [
            6.29432,
            6.34057
          ],
          [
            6.31781,
            6.34037
          ],
          [
            6.34112,
            6.33943
          ],
          [
            6.36423,
            6.33776
          ],
          [
            6.38716,
            6.33535
          ],
          [
            6.40989,
            6.3322
          ],
          [
            6.43244,
            6.32832
          ],
          [
            6.45479,
            6.3237
          ],
          [
            6.47695,
            6.31835
          ],
          [
            6.49892,
            6.31226
          ],
          [
            6.5207,
            6.30544
          ],
          [
            6.54229,
            6.29788
          ],
          [
            6.56369,
            6.28959
          ],
          [
            6.5849,
            6.28056
          ],
          [
            6.60592,
            6.27079
          ],
          [
            6.62675,
            6.26029
          ],
          [
            6.64738,
            6.24905
          ],
          [
            6.66783,
            6.23708
          ],
          [
            6.68808,
            6.22437
          ],
          [
            6.70815,
            6.21093
          ],
          [
            6.72802,
            6.19675
          ],
          [
            6.74771,
            6.18184
          ],
          [
            6.7672,
            6.16619
          ],
          [
            6.7865,
            6.1498
          ]
        ]
      }
    },
    {
      "type": "Feature",
      "id": "ezechima-anioma",
      "properties": {
        "id": "ezechima-anioma",
        "name": "Ezechima Clan Town Foundations (Anioma)",
        "originName": "Igbanke / Western Hearth",
        "destinationName": "Issele-Uku / Ogwashi-Uku",
        "era": "16th Century",
        "description": "Formation of Umuezechima monarchies (Issele-Uku, Onicha-Olona, Ezi, Obior).",
        "color": "#8b5cf6"
      },
      "geometry": {
        "type": "LineString",
        "coordinates": [
          [
            6.1245,
            6.3214
          ],
          [
            6.13668,
            6.32687
          ],
          [
            6.14886,
            6.33194
          ],
          [
            6.16102,
            6.33661
          ],
          [
            6.17317,
            6.34087
          ],
          [
            6.18531,
            6.34474
          ],
          [
            6.19744,
            6.34821
          ],
          [
            6.20955,
            6.35127
          ],
          [
            6.22166,
            6.35394
          ],
          [
            6.23375,
            6.3562
          ],
          [
            6.24583,
            6.35807
          ],
          [
            6.2579,
            6.35953
          ],
          [
            6.26996,
            6.36059
          ],
          [
            6.28201,
            6.36125
          ],
          [
            6.29405,
            6.36151
          ],
          [
            6.30607,
            6.36137
          ],
          [
            6.31809,
            6.36083
          ],
          [
            6.33009,
            6.35989
          ],
          [
            6.34208,
            6.35855
          ],
          [
            6.35406,
            6.35681
          ],
          [
            6.36603,
            6.35467
          ],
          [
            6.37799,
            6.35212
          ],
          [
            6.38994,
            6.34918
          ],
          [
            6.40187,
            6.34583
          ],
          [
            6.4138,
            6.34209
          ],
          [
            6.42571,
            6.33794
          ],
          [
            6.43761,
            6.33339
          ],
          [
            6.4495,
            6.32845
          ],
          [
            6.46138,
            6.3231
          ],
          [
            6.47324,
            6.31735
          ],
          [
            6.4851,
            6.3112
          ]
        ]
      }
    },
    {
      "type": "Feature",
      "id": "ikwerre-rumuokoro",
      "properties": {
        "id": "ikwerre-rumuokoro",
        "name": "Ikwerre Clan Lineage & Settlement Arc",
        "originName": "Elele / Ogba Hearth",
        "destinationName": "Port Harcourt / Diobu-Rumuokoro",
        "era": "Pre-Colonial Epoch",
        "description": "Upland clan movements across fertile agricultural ridges in the Niger Delta.",
        "color": "#ec4899"
      },
      "geometry": {
        "type": "LineString",
        "coordinates": [
          [
            6.8184,
            5.1054
          ],
          [
            6.82848,
            5.09986
          ],
          [
            6.83828,
            5.09411
          ],
          [
            6.8478,
            5.08817
          ],
          [
            6.85704,
            5.08203
          ],
          [
            6.86599,
            5.07568
          ],
          [
            6.87466,
            5.06914
          ],
          [
            6.88306,
            5.0624
          ],
          [
            6.89117,
            5.05545
          ],
          [
            6.899,
            5.04831
          ],
          [
            6.90654,
            5.04097
          ],
          [
            6.91381,
            5.03342
          ],
          [
            6.9208,
            5.02568
          ],
          [
            6.9275,
            5.01774
          ],
          [
            6.93392,
            5.00959
          ],
          [
            6.94006,
            5.00125
          ],
          [
            6.94592,
            4.99271
          ],
          [
            6.9515,
            4.98396
          ],
          [
            6.9568,
            4.97502
          ],
          [
            6.96181,
            4.96588
          ],
          [
            6.96654,
            4.95653
          ],
          [
            6.971,
            4.94699
          ],
          [
            6.97517,
            4.93725
          ],
          [
            6.97906,
            4.9273
          ],
          [
            6.98266,
            4.91716
          ],
          [
            6.98599,
            4.90682
          ],
          [
            6.98904,
            4.89627
          ],
          [
            6.9918,
            4.88553
          ],
          [
            6.99428,
            4.87459
          ],
          [
            6.99648,
            4.86344
          ],
          [
            6.9984,
            4.8521
          ]
        ]
      }
    },
    {
      "type": "Feature",
      "properties": {
        "name": "Nri (Ancestral Hearth)",
        "color": "#10b981"
      },
      "geometry": {
        "type": "Point",
        "coordinates": [
          7.0267,
          6.1578
        ]
      }
    },
    {
      "type": "Feature",
      "properties": {
        "name": "Aguleri / Omambala",
        "color": "#10b981"
      },
      "geometry": {
        "type": "Point",
        "coordinates": [
          6.8865,
          6.3421
        ]
      }
    },
    {
      "type": "Feature",
      "properties": {
        "name": "Nri",
        "color": "#059669"
      },
      "geometry": {
        "type": "Point",
        "coordinates": [
          7.0267,
          6.1578
        ]
      }
    },
    {
      "type": "Feature",
      "properties": {
        "name": "Igbo-Ukwu",
        "color": "#059669"
      },
      "geometry": {
        "type": "Point",
        "coordinates": [
          7.0189,
          6.0177
        ]
      }
    },
    {
      "type": "Feature",
      "properties": {
        "name": "Arochukwu",
        "color": "#f59e0b"
      },
      "geometry": {
        "type": "Point",
        "coordinates": [
          7.9122,
          5.3854
        ]
      }
    },
    {
      "type": "Feature",
      "properties": {
        "name": "Arondizuogu (Imo State)",
        "color": "#f59e0b"
      },
      "geometry": {
        "type": "Point",
        "coordinates": [
          7.1432,
          5.8643
        ]
      }
    },
    {
      "type": "Feature",
      "properties": {
        "name": "Aro-Ndikelionwu (Anambra State)",
        "color": "#d97706"
      },
      "geometry": {
        "type": "Point",
        "coordinates": [
          7.1662,
          6.0831
        ]
      }
    },
    {
      "type": "Feature",
      "properties": {
        "name": "Igbanke / Western Borderlands",
        "color": "#a855f7"
      },
      "geometry": {
        "type": "Point",
        "coordinates": [
          6.1245,
          6.3214
        ]
      }
    },
    {
      "type": "Feature",
      "properties": {
        "name": "Onitsha (River Niger)",
        "color": "#a855f7"
      },
      "geometry": {
        "type": "Point",
        "coordinates": [
          6.7865,
          6.1498
        ]
      }
    },
    {
      "type": "Feature",
      "properties": {
        "name": "Igbanke / Western Hearth",
        "color": "#8b5cf6"
      },
      "geometry": {
        "type": "Point",
        "coordinates": [
          6.1245,
          6.3214
        ]
      }
    },
    {
      "type": "Feature",
      "properties": {
        "name": "Issele-Uku / Ogwashi-Uku",
        "color": "#8b5cf6"
      },
      "geometry": {
        "type": "Point",
        "coordinates": [
          6.4851,
          6.3112
        ]
      }
    },
    {
      "type": "Feature",
      "properties": {
        "name": "Elele / Ogba Hearth",
        "color": "#ec4899"
      },
      "geometry": {
        "type": "Point",
        "coordinates": [
          6.8184,
          5.1054
        ]
      }
    },
    {
      "type": "Feature",
      "properties": {
        "name": "Port Harcourt / Diobu-Rumuokoro",
        "color": "#ec4899"
      },
      "geometry": {
        "type": "Point",
        "coordinates": [
          6.9984,
          4.8521
        ]
      }
    },
    {
      "type": "Feature",
      "id": "opobo-jaja-founding",
      "properties": {
        "id": "opobo-jaja-founding",
        "name": "King Jaja Opobo Founding Corridor",
        "originName": "Amaigbo (Heartland Hearth)",
        "destinationName": "Opobo Town (Imo Estuary)",
        "era": "1869–1870 AD",
        "description": "Founding of the Opobo Kingdom by King Jaja of Amaigbo, creating an Igbo mercantile and court power on the Atlantic.",
        "color": "#f59e0b"
      },
      "geometry": {
        "type": "LineString",
        "coordinates": [
          [
            7.0851,
            5.6724
          ],
          [
            7.11929,
            5.63257
          ],
          [
            7.15215,
            5.5922
          ],
          [
            7.18368,
            5.55132
          ],
          [
            7.21389,
            5.50991
          ],
          [
            7.24276,
            5.46797
          ],
          [
            7.27031,
            5.42551
          ],
          [
            7.29652,
            5.38252
          ],
          [
            7.32141,
            5.33901
          ],
          [
            7.34497,
            5.29497
          ],
          [
            7.3672,
            5.25041
          ],
          [
            7.3881,
            5.20532
          ],
          [
            7.40768,
            5.1597
          ],
          [
            7.42592,
            5.11356
          ],
          [
            7.44284,
            5.0669
          ],
          [
            7.45842,
            5.01971
          ],
          [
            7.47268,
            4.97199
          ],
          [
            7.48561,
            4.92375
          ],
          [
            7.49721,
            4.87498
          ],
          [
            7.50748,
            4.82569
          ],
          [
            7.51642,
            4.77587
          ],
          [
            7.52403,
            4.72553
          ],
          [
            7.53032,
            4.67466
          ],
          [
            7.53528,
            4.62326
          ],
          [
            7.5389,
            4.57135
          ],
          [
            7.5412,
            4.5189
          ]
        ]
      }
    },
    {
      "type": "Feature",
      "properties": {
        "id": "opobo-jaja-founding",
        "name": "Opobo Town (Imo Estuary)",
        "originName": "Amaigbo (Heartland Hearth)",
        "destinationName": "Opobo Town (Imo Estuary)",
        "era": "1869–1870 AD",
        "description": "Founding of the Opobo Kingdom by King Jaja of Amaigbo, creating an Igbo mercantile and court power on the Atlantic.",
        "color": "#f59e0b"
      },
      "geometry": {
        "type": "Point",
        "coordinates": [
          7.5412,
          4.5189
        ]
      }
    },
    {
      "type": "Feature",
      "id": "aboh-niger-kingdom",
      "properties": {
        "id": "aboh-niger-kingdom",
        "name": "Aboh Riverine Naval Empire & Lower Niger Corridors",
        "originName": "Aboh (River Niger West Bank)",
        "destinationName": "Ndoni & Upper Delta Waterways",
        "era": "17th–19th Century",
        "description": "Canoe flotilla naval supremacy along the lower Niger, controlling trade tariffs from Asaba to the Nun/Forcados estuaries.",
        "color": "#06b6d4"
      },
      "geometry": {
        "type": "LineString",
        "coordinates": [
          [
            6.5412,
            5.5489
          ],
          [
            6.55062,
            5.545
          ],
          [
            6.55985,
            5.54089
          ],
          [
            6.5689,
            5.53657
          ],
          [
            6.57776,
            5.53205
          ],
          [
            6.58644,
            5.52732
          ],
          [
            6.59494,
            5.52238
          ],
          [
            6.60325,
            5.51723
          ],
          [
            6.61138,
            5.51188
          ],
          [
            6.61933,
            5.50632
          ],
          [
            6.62709,
            5.50055
          ],
          [
            6.63466,
            5.49457
          ],
          [
            6.64205,
            5.48839
          ],
          [
            6.64926,
            5.482
          ],
          [
            6.65629,
            5.4754
          ],
          [
            6.66313,
            5.46859
          ],
          [
            6.66978,
            5.46157
          ],
          [
            6.67625,
            5.45435
          ],
          [
            6.68254,
            5.44692
          ],
          [
            6.68865,
            5.43928
          ],
          [
            6.69456,
            5.43144
          ],
          [
            6.7003,
            5.42339
          ],
          [
            6.70585,
            5.41513
          ],
          [
            6.71122,
            5.40666
          ],
          [
            6.7164,
            5.39798
          ],
          [
            6.7214,
            5.3891
          ]
        ]
      }
    },
    {
      "type": "Feature",
      "properties": {
        "id": "aboh-niger-kingdom",
        "name": "Ndoni & Upper Delta Waterways",
        "originName": "Aboh (River Niger West Bank)",
        "destinationName": "Ndoni & Upper Delta Waterways",
        "era": "17th–19th Century",
        "description": "Canoe flotilla naval supremacy along the lower Niger, controlling trade tariffs from Asaba to the Nun/Forcados estuaries.",
        "color": "#06b6d4"
      },
      "geometry": {
        "type": "Point",
        "coordinates": [
          6.7214,
          5.3891
        ]
      }
    },
    {
      "type": "Feature",
      "id": "aro-benue-middlebelt",
      "properties": {
        "id": "aro-benue-middlebelt",
        "name": "Arochukwu to Benue Valley Commercial Highway",
        "originName": "Arochukwu (Chukwu Ibin Ukpabi)",
        "destinationName": "Idoma & Tiv Borderlands (Otukpo/Wukari)",
        "era": "18th–19th Century",
        "description": "The northernmost mercantile highway of the Aro Confederacy, linking Cross River trade rings to Benue salt mines.",
        "color": "#f59e0b"
      },
      "geometry": {
        "type": "LineString",
        "coordinates": [
          [
            7.9122,
            5.3854
          ],
          [
            7.89616,
            5.46063
          ],
          [
            7.88219,
            5.53559
          ],
          [
            7.8703,
            5.61031
          ],
          [
            7.86049,
            5.68476
          ],
          [
            7.85276,
            5.75896
          ],
          [
            7.84711,
            5.83291
          ],
          [
            7.84353,
            5.9066
          ],
          [
            7.84203,
            5.98003
          ],
          [
            7.84261,
            6.05321
          ],
          [
            7.84527,
            6.12613
          ],
          [
            7.85001,
            6.19879
          ],
          [
            7.85682,
            6.2712
          ],
          [
            7.86571,
            6.34335
          ],
          [
            7.87668,
            6.41525
          ],
          [
            7.88973,
            6.48689
          ],
          [
            7.90486,
            6.55827
          ],
          [
            7.92206,
            6.6294
          ],
          [
            7.94134,
            6.70027
          ],
          [
            7.9627,
            6.77089
          ],
          [
            7.98614,
            6.84124
          ],
          [
            8.01166,
            6.91135
          ],
          [
            8.03925,
            6.98119
          ],
          [
            8.06892,
            7.05079
          ],
          [
            8.10067,
            7.12012
          ],
          [
            8.1345,
            7.1892
          ]
        ]
      }
    },
    {
      "type": "Feature",
      "properties": {
        "id": "aro-benue-middlebelt",
        "name": "Idoma & Tiv Borderlands (Otukpo/Wukari)",
        "originName": "Arochukwu (Chukwu Ibin Ukpabi)",
        "destinationName": "Idoma & Tiv Borderlands (Otukpo/Wukari)",
        "era": "18th–19th Century",
        "description": "The northernmost mercantile highway of the Aro Confederacy, linking Cross River trade rings to Benue salt mines.",
        "color": "#f59e0b"
      },
      "geometry": {
        "type": "Point",
        "coordinates": [
          8.1345,
          7.1892
        ]
      }
    }
  ]
}